[{"OBJECT_NAME":"IONOSFERA-M 3","OBJECT_ID":"2025-155A","EPOCH":"2026-03-09T23:55:45.856992","MEAN_MOTION":14.2146666,"ECCENTRICITY":0.00021277,"INCLINATION":98.5924,"RA_OF_ASC_NODE":33.457,"ARG_OF_PERICENTER":117.7739,"MEAN_ANOMALY":242.3654,"EPHEMERIS_TYPE":0,"CLASSIFICATION_TYPE":"U","NORAD_CAT_ID":64876,"ELEMENT_SET_NO":999,"REV_AT_EPOCH":3231,"BSTAR":7.6669026e-5,"MEAN_MOTION_DOT":1.25e-6,"MEAN_MOTION_DDOT":0},{"OBJECT_NAME":"CZ-4 DEB","OBJECT_ID":"1990-081N","EPOCH":"2026-03-09T16:55:56.051040","MEAN_MOTION":14.32115041,"ECCENTRICITY":0.00731515,"INCLINATION":98.4602,"RA_OF_ASC_NODE":121.1297,"ARG_OF_PERICENTER":156.6696,"MEAN_ANOMALY":318.3144,"EPHEMERIS_TYPE":0,"CLASSIFICATION_TYPE":"U","NORAD_CAT_ID":20850,"ELEMENT_SET_NO":999,"REV_AT_EPOCH":84872,"BSTAR":0.00023963834,"MEAN_MOTION_DOT":6.21e-6,"MEAN_MOTION_DDOT":0}]
